[
  {
    "name": "ONEWEB-0395",
    "noradId": "50475",
    "line1": "1 50475U 21132G   26167.55666247 -.00000200  00000+0 -59897-3 0  9997",
    "line2": "2 50475  87.8889  21.1930 0002043  89.0524 271.0838 13.11420416215633"
  },
  {
    "name": "ONEWEB-0396",
    "noradId": "50476",
    "line1": "1 50476U 21132H   26167.48434982  .00000106  00000+0  23602-3 0  9997",
    "line2": "2 50476  87.9170 335.5943 0001919  87.6449 272.4903 13.18685094221542"
  },
  {
    "name": "ONEWEB-0397",
    "noradId": "50477",
    "line1": "1 50477U 21132J   26167.49952768  .00000040  00000+0  68162-4 0  9994",
    "line2": "2 50477  87.9170 335.5915 0001853  84.5894 275.5450 13.18685510221521"
  },
  {
    "name": "ONEWEB-0398",
    "noradId": "50478",
    "line1": "1 50478U 21132K   26167.60074754  .00000127  00000+0  32159-3 0  9990",
    "line2": "2 50478  87.8892  21.1746 0001952  94.4861 265.6490 13.11414263215532"
  },
  {
    "name": "ONEWEB-0399",
    "noradId": "50479",
    "line1": "1 50479U 21132L   26167.58719630  .00000575  00000+0  15855-2 0  9997",
    "line2": "2 50479  87.8894  21.1882 0002141  74.6873 285.4491 13.11415889215525"
  },
  {
    "name": "ONEWEB-0400",
    "noradId": "50480",
    "line1": "1 50480U 21132M   26167.47761012  .00000075  00000+0  15865-3 0  9995",
    "line2": "2 50480  87.9171 335.5854 0001925  97.9110 262.2241 13.18686005221517"
  },
  {
    "name": "ONEWEB-0401",
    "noradId": "50481",
    "line1": "1 50481U 21132N   26167.52313269  .00000037  00000+0  61512-4 0  9998",
    "line2": "2 50481  87.9172 335.5737 0001641  88.4009 271.7311 13.18685401221529"
  },
  {
    "name": "ONEWEB-0402",
    "noradId": "50482",
    "line1": "1 50482U 21132P   26167.48604651  .00000102  00000+0  22621-3 0  9992",
    "line2": "2 50482  87.9169 335.5702 0001524  80.1584 279.9721 13.18686418221541"
  },
  {
    "name": "ONEWEB-0403",
    "noradId": "50483",
    "line1": "1 50483U 21132Q   26167.51132979  .00000057  00000+0  11091-3 0  9994",
    "line2": "2 50483  87.9170 335.5897 0001986  90.7487 269.3873 13.18685013221507"
  },
  {
    "name": "ONEWEB-0404",
    "noradId": "50484",
    "line1": "1 50484U 21132R   26167.56854149  .00000269  00000+0  72317-3 0  9993",
    "line2": "2 50484  87.8891  21.1905 0002136  82.5823 277.5548 13.11419449215612"
  },
  {
    "name": "ONEWEB-0405",
    "noradId": "50485",
    "line1": "1 50485U 21132S   26167.52482355  .00000063  00000+0  12583-3 0  9997",
    "line2": "2 50485  87.9173 335.5716 0002021 105.3265 254.8091 13.18687055221903"
  },
  {
    "name": "ONEWEB-0406",
    "noradId": "50486",
    "line1": "1 50486U 21132T   26167.51638958  .00000055  00000+0  10763-3 0  9998",
    "line2": "2 50486  87.9165 335.5896 0002342  86.1586 273.9814 13.18685313221531"
  },
  {
    "name": "ONEWEB-0407",
    "noradId": "50487",
    "line1": "1 50487U 21132U   26167.50965860  .00000597  00000+0  14824-2 0  9995",
    "line2": "2 50487  87.9167 335.5831 0001578  90.3593 269.7720 13.18683530221479"
  },
  {
    "name": "ONEWEB-0409",
    "noradId": "50488",
    "line1": "1 50488U 21132V   26167.56683568  .00000225  00000+0  59864-3 0  9996",
    "line2": "2 50488  87.8894  21.1788 0002117  85.9466 274.1903 13.11420329215502"
  },
  {
    "name": "ONEWEB-0412",
    "noradId": "50489",
    "line1": "1 50489U 21132W   26167.49783860  .00000069  00000+0  14325-3 0  9994",
    "line2": "2 50489  87.9167 335.5939 0001638  85.2633 274.8686 13.18685448221563"
  },
  {
    "name": "ONEWEB-0413",
    "noradId": "50490",
    "line1": "1 50490U 21132X   26167.42703992  .00000063  00000+0  12636-3 0  9994",
    "line2": "2 50490  87.9158 335.6067 0001537  90.1287 270.0022 13.18686137221496"
  },
  {
    "name": "ONEWEB-0414",
    "noradId": "50491",
    "line1": "1 50491U 21132Y   26167.48772693  .00000134  00000+0  30606-3 0  9991",
    "line2": "2 50491  87.9171 335.5760 0001825  87.1913 272.9428 13.18686115221535"
  },
  {
    "name": "ONEWEB-0417",
    "noradId": "50492",
    "line1": "1 50492U 21132Z   26167.49615619  .00000075  00000+0  15841-3 0  9995",
    "line2": "2 50492  87.9161 335.5944 0002085  90.8118 269.3253 13.18686122221518"
  },
  {
    "name": "ONEWEB-0418",
    "noradId": "50493",
    "line1": "1 50493U 21132AA  26167.50612188  .00000072  00000+0  15042-3 0  9996",
    "line2": "2 50493  87.9170 335.5921 0002148  91.4981 268.6397 13.18685243221579"
  },
  {
    "name": "ONEWEB-0419",
    "noradId": "50494",
    "line1": "1 50494U 21132AB  26167.52472305  .00000006  00000+0 -16336-4 0  9990",
    "line2": "2 50494  87.9171 335.5879 0002114  97.2278 262.9095 13.18665803221492"
  },
  {
    "name": "ONEWEB-0420",
    "noradId": "50495",
    "line1": "1 50495U 21132AC  26167.48940850  .00000115  00000+0  25851-3 0  9992",
    "line2": "2 50495  87.9160 335.5979 0001675  96.0183 264.1140 13.18686368221488"
  },
  {
    "name": "ONEWEB-0421",
    "noradId": "50496",
    "line1": "1 50496U 21132AD  26167.48266531  .00000086  00000+0  18419-3 0  9999",
    "line2": "2 50496  87.9167 335.5967 0001772  80.7087 279.4245 13.18684845221522"
  },
  {
    "name": "ONEWEB-0424",
    "noradId": "50497",
    "line1": "1 50497U 21132AE  26167.51976292  .00000032  00000+0  47204-4 0  9992",
    "line2": "2 50497  87.9170 335.5874 0002078 100.9415 259.1951 13.18685159221555"
  },
  {
    "name": "ONEWEB-0426",
    "noradId": "50498",
    "line1": "1 50498U 21132AF  26167.47843820  .00000020  00000+0  17291-4 0  9998",
    "line2": "2 50498  87.9169 335.5866 0002278  76.9357 283.2030 13.18689108221491"
  },
  {
    "name": "ONEWEB-0427",
    "noradId": "50499",
    "line1": "1 50499U 21132AG  26167.44220059  .00000064  00000+0  12998-3 0  9995",
    "line2": "2 50499  87.9172 335.5828 0002035  89.7301 270.4064 13.18685164221512"
  },
  {
    "name": "ONEWEB-0429",
    "noradId": "50500",
    "line1": "1 50500U 21132AH  26167.50458736  .00000004  00000+0 -23234-4 0  9991",
    "line2": "2 50500  87.9162 335.5946 0001725  92.9546 267.1784 13.18685724221498"
  },
  {
    "name": "ONEWEB-0430",
    "noradId": "50501",
    "line1": "1 50501U 21132AJ  26167.49278012  .00000105  00000+0  23387-3 0  9996",
    "line2": "2 50501  87.9162 335.5955 0001817 101.1255 259.0082 13.18686673221531"
  },
  {
    "name": "ONEWEB-0432",
    "noradId": "50502",
    "line1": "1 50502U 21132AK  26167.45935589  .00000109  00000+0  24964-3 0  9998",
    "line2": "2 50502  87.9169 335.5796 0002162 108.6867 251.4499 13.17155171221482"
  },
  {
    "name": "ONEWEB-0440",
    "noradId": "50503",
    "line1": "1 50503U 21132AL  26167.51301537 -.00000003  00000+0 -39516-4 0  9991",
    "line2": "2 50503  87.9171 335.5875 0001566  86.3208 273.8103 13.18685357221487"
  },
  {
    "name": "ONEWEB-0450",
    "noradId": "50504",
    "line1": "1 50504U 21132AM  26167.50641452  .00000059  00000+0  11698-3 0  9993",
    "line2": "2 50504  87.9160 335.5941 0001688  96.9355 263.1970 13.18686292221512"
  }
]